TIANQI-15               
1 49027U 21065B   26068.81163741  .00006722  00000+0  41179-3 0  9990
2 49027  34.9979 108.2420 0007067 250.7766 109.2180 15.09508085254244
STARLINK-3721           
1 52134U 22029AY  26068.27400704  .00000227  00000+0  32336-4 0  9997
2 52134  53.2182  70.9864 0001380  93.7972 266.3178 15.08838960220871
